{"fetched_at":"2026-07-21T07:06:26.959Z","source":"https://celestrak.org/NORAD/elements/gp.php?GROUP=kuiper&FORMAT=JSON","constellation":"kuiper","records":[{"OBJECT_NAME":"KUIPER-00572","OBJECT_ID":"2026-118F","EPOCH":"2026-07-20T22:00:01.999584","CLASSIFICATION_TYPE":"U","MEAN_MOTION":15.14229921,"ECCENTRICITY":0.00038154,"INCLINATION":51.8783,"RA_OF_ASC_NODE":251.3499,"ARG_OF_PERICENTER":306.404,"MEAN_ANOMALY":63.0446,"EPHEMERIS_TYPE":0,"NORAD_CAT_ID":69272,"ELEMENT_SET_NO":999,"REV_AT_EPOCH":353,"BSTAR":-0.090741339,"MEAN_MOTION_DOT":-0.01530138,"MEAN_MOTION_DDOT":0},{"OBJECT_NAME":"KUIPER-00581","OBJECT_ID":"2026-118G","EPOCH":"2026-07-20T22:00:01.999584","CLASSIFICATION_TYPE":"U","MEAN_MOTION":14.88737383,"ECCENTRICITY":0.00043107,"INCLINATION":51.8982,"RA_OF_ASC_NODE":254.2311,"ARG_OF_PERICENTER":292.031,"MEAN_ANOMALY":47.3716,"EPHEMERIS_TYPE":0,"NORAD_CAT_ID":69273,"ELEMENT_SET_NO":999,"REV_AT_EPOCH":349,"BSTAR":-0.0035062054,"MEAN_MOTION_DOT":-0.00033186,"MEAN_MOTION_DDOT":0},{"OBJECT_NAME":"KUIPER-00584","OBJECT_ID":"2026-118H","EPOCH":"2026-07-20T22:00:01.999584","CLASSIFICATION_TYPE":"U","MEAN_MOTION":14.82555565,"ECCENTRICITY":0.00097879,"INCLINATION":51.9003,"RA_OF_ASC_NODE":256.65,"ARG_OF_PERICENTER":336.3417,"MEAN_ANOMALY":198.1598,"EPHEMERIS_TYPE":0,"NORAD_CAT_ID":69274,"ELEMENT_SET_NO":999,"REV_AT_EPOCH":573,"BSTAR":-0.0065688164,"MEAN_MOTION_DOT":-0.00053182,"MEAN_MOTION_DDOT":0},{"OBJECT_NAME":"KUIPER-00587","OBJECT_ID":"2026-118J","EPOCH":"2026-07-20T22:00:01.999584","CLASSIFICATION_TYPE":"U","MEAN_MOTION":15.30046253,"ECCENTRICITY":0.00077284,"INCLINATION":51.8661,"RA_OF_ASC_NODE":250.5212,"ARG_OF_PERICENTER":320.9548,"MEAN_ANOMALY":133.7821,"EPHEMERIS_TYPE":0,"NORAD_CAT_ID":69275,"ELEMENT_SET_NO":999,"REV_AT_EPOCH":567,"BSTAR":0.00037299061,"MEAN_MOTION_DOT":0.00010666,"MEAN_MOTION_DDOT":0},{"OBJECT_NAME":"KUIPER-00590","OBJECT_ID":"2026-118K","EPOCH":"2026-07-20T22:00:01.999584","CLASSIFICATION_TYPE":"U","MEAN_MOTION":15.0139383,"ECCENTRICITY":0.00034135,"INCLINATION":51.8887,"RA_OF_ASC_NODE":252.431,"ARG_OF_PERICENTER":19.1471,"MEAN_ANOMALY":270.9596,"EPHEMERIS_TYPE":0,"NORAD_CAT_ID":69276,"ELEMENT_SET_NO":999,"REV_AT_EPOCH":373,"BSTAR":-0.00085018804,"MEAN_MOTION_DOT":-0.00011341,"MEAN_MOTION_DDOT":0},{"OBJECT_NAME":"KUIPER-00592","OBJECT_ID":"2026-118L","EPOCH":"2026-07-20T22:00:01.999584","CLASSIFICATION_TYPE":"U","MEAN_MOTION":15.05251343,"ECCENTRICITY":0.00024203,"INCLINATION":51.8846,"RA_OF_ASC_NODE":252.0059,"ARG_OF_PERICENTER":231.7567,"MEAN_ANOMALY":286.2647,"EPHEMERIS_TYPE":0,"NORAD_CAT_ID":69277,"ELEMENT_SET_NO":999,"REV_AT_EPOCH":537,"BSTAR":-0.0031512652,"MEAN_MOTION_DOT":-0.0004553,"MEAN_MOTION_DDOT":0},{"OBJECT_NAME":"KUIPER-00593","OBJECT_ID":"2026-118M","EPOCH":"2026-07-20T20:04:08.613984","CLASSIFICATION_TYPE":"U","MEAN_MOTION":15.38809326,"ECCENTRICITY":0.00030571,"INCLINATION":51.8695,"RA_OF_ASC_NODE":250.2037,"ARG_OF_PERICENTER":308.6756,"MEAN_ANOMALY":51.3957,"EPHEMERIS_TYPE":0,"NORAD_CAT_ID":69278,"ELEMENT_SET_NO":999,"REV_AT_EPOCH":922,"BSTAR":0.00044459535,"MEAN_MOTION_DOT":0.00016976,"MEAN_MOTION_DDOT":0},{"OBJECT_NAME":"KUIPER-00594","OBJECT_ID":"2026-118N","EPOCH":"2026-07-20T09:16:00.036192","CLASSIFICATION_TYPE":"U","MEAN_MOTION":15.37506291,"ECCENTRICITY":0.0001986,"INCLINATION":51.8693,"RA_OF_ASC_NODE":252.436,"ARG_OF_PERICENTER":90.597,"MEAN_ANOMALY":269.5245,"EPHEMERIS_TYPE":0,"NORAD_CAT_ID":69279,"ELEMENT_SET_NO":999,"REV_AT_EPOCH":909,"BSTAR":0.00012515,"MEAN_MOTION_DOT":0.00004288,"MEAN_MOTION_DDOT":0},{"OBJECT_NAME":"KUIPER-00595","OBJECT_ID":"2026-118P","EPOCH":"2026-07-20T20:14:53.097504","CLASSIFICATION_TYPE":"U","MEAN_MOTION":15.37540236,"ECCENTRICITY":0.00015055,"INCLINATION":51.8701,"RA_OF_ASC_NODE":250.2506,"ARG_OF_PERICENTER":16.2037,"MEAN_ANOMALY":343.8998,"EPHEMERIS_TYPE":0,"NORAD_CAT_ID":69280,"ELEMENT_SET_NO":999,"REV_AT_EPOCH":919,"BSTAR":0.00042313119,"MEAN_MOTION_DOT":0.00015469,"MEAN_MOTION_DDOT":0},{"OBJECT_NAME":"KUIPER-00596","OBJECT_ID":"2026-118Q","EPOCH":"2026-07-20T22:00:01.999584","CLASSIFICATION_TYPE":"U","MEAN_MOTION":14.82105602,"ECCENTRICITY":0.00066797,"INCLINATION":51.9013,"RA_OF_ASC_NODE":256.5305,"ARG_OF_PERICENTER":349.9854,"MEAN_ANOMALY":278.3217,"EPHEMERIS_TYPE":0,"NORAD_CAT_ID":69281,"ELEMENT_SET_NO":999,"REV_AT_EPOCH":541,"BSTAR":-0.006132783,"MEAN_MOTION_DOT":-0.00049138,"MEAN_MOTION_DDOT":0},{"OBJECT_NAME":"KUIPER-00597","OBJECT_ID":"2026-118R","EPOCH":"2026-07-20T09:56:36.161952","CLASSIFICATION_TYPE":"U","MEAN_MOTION":15.37864882,"ECCENTRICITY":0.00062852,"INCLINATION":51.8634,"RA_OF_ASC_NODE":252.5953,"ARG_OF_PERICENTER":309.8183,"MEAN_ANOMALY":50.225,"EPHEMERIS_TYPE":0,"NORAD_CAT_ID":69282,"ELEMENT_SET_NO":999,"REV_AT_EPOCH":909,"BSTAR":0.00031497313,"MEAN_MOTION_DOT":0.00011537,"MEAN_MOTION_DDOT":0},{"OBJECT_NAME":"KUIPER-00599","OBJECT_ID":"2026-118S","EPOCH":"2026-07-20T22:00:01.999584","CLASSIFICATION_TYPE":"U","MEAN_MOTION":15.26060896,"ECCENTRICITY":0.00057852,"INCLINATION":51.875,"RA_OF_ASC_NODE":250.4242,"ARG_OF_PERICENTER":304.5822,"MEAN_ANOMALY":224.8036,"EPHEMERIS_TYPE":0,"NORAD_CAT_ID":69283,"ELEMENT_SET_NO":999,"REV_AT_EPOCH":430,"BSTAR":-0.045667585,"MEAN_MOTION_DOT":-0.01091977,"MEAN_MOTION_DDOT":0},{"OBJECT_NAME":"KUIPER-00600","OBJECT_ID":"2026-118T","EPOCH":"2026-07-20T08:39:29.219040","CLASSIFICATION_TYPE":"U","MEAN_MOTION":15.37528222,"ECCENTRICITY":0.0008049,"INCLINATION":51.8621,"RA_OF_ASC_NODE":252.979,"ARG_OF_PERICENTER":309.1896,"MEAN_ANOMALY":50.8375,"EPHEMERIS_TYPE":0,"NORAD_CAT_ID":69284,"ELEMENT_SET_NO":999,"REV_AT_EPOCH":908,"BSTAR":0.00034636,"MEAN_MOTION_DOT":0.00012591,"MEAN_MOTION_DDOT":0},{"OBJECT_NAME":"KUIPER-00601","OBJECT_ID":"2026-118U","EPOCH":"2026-07-20T22:00:01.999584","CLASSIFICATION_TYPE":"U","MEAN_MOTION":15.03413799,"ECCENTRICITY":0.00026789,"INCLINATION":51.8914,"RA_OF_ASC_NODE":252.1629,"ARG_OF_PERICENTER":344.4115,"MEAN_ANOMALY":21.7148,"EPHEMERIS_TYPE":0,"NORAD_CAT_ID":69285,"ELEMENT_SET_NO":999,"REV_AT_EPOCH":491,"BSTAR":-0.0010673283,"MEAN_MOTION_DOT":-0.00014929,"MEAN_MOTION_DDOT":0},{"OBJECT_NAME":"KUIPER-00602","OBJECT_ID":"2026-118V","EPOCH":"2026-07-20T22:00:01.999584","CLASSIFICATION_TYPE":"U","MEAN_MOTION":15.35203223,"ECCENTRICITY":0.00024059,"INCLINATION":51.87,"RA_OF_ASC_NODE":249.8709,"ARG_OF_PERICENTER":301.9904,"MEAN_ANOMALY":117.9408,"EPHEMERIS_TYPE":0,"NORAD_CAT_ID":69286,"ELEMENT_SET_NO":999,"REV_AT_EPOCH":555,"BSTAR":0.000022121133,"MEAN_MOTION_DOT":0.00000386,"MEAN_MOTION_DDOT":0},{"OBJECT_NAME":"KUIPER-00603","OBJECT_ID":"2026-118W","EPOCH":"2026-07-20T22:00:01.999584","CLASSIFICATION_TYPE":"U","MEAN_MOTION":15.27770622,"ECCENTRICITY":0.00031483,"INCLINATION":51.8731,"RA_OF_ASC_NODE":250.297,"ARG_OF_PERICENTER":302.0786,"MEAN_ANOMALY":242.2709,"EPHEMERIS_TYPE":0,"NORAD_CAT_ID":69287,"ELEMENT_SET_NO":999,"REV_AT_EPOCH":509,"BSTAR":-0.045024896,"MEAN_MOTION_DOT":-0.01129871,"MEAN_MOTION_DDOT":0}]}
