KUIPER-00572            
1 69272U 26118F   26201.91668981 -.01530138  00000+0 -90741-1 0  9997
2 69272  51.8783 251.3499 0003815 306.4040  63.0446 15.14229921  3537
KUIPER-00581            
1 69273U 26118G   26201.91668981 -.00033186  00000+0 -35062-2 0  9994
2 69273  51.8982 254.2311 0004310 292.0310  47.3716 14.88737383  3491
KUIPER-00584            
1 69274U 26118H   26201.91668981 -.00053182  00000+0 -65688-2 0  9990
2 69274  51.9003 256.6500 0009787 336.3417 198.1598 14.82555565  5732
KUIPER-00587            
1 69275U 26118J   26201.91668981  .00010666  00000+0  37299-3 0  9997
2 69275  51.8661 250.5212 0007728 320.9548 133.7821 15.30046253  5672
KUIPER-00590            
1 69276U 26118K   26201.91668981 -.00011341  00000+0 -85019-3 0  9994
2 69276  51.8887 252.4310 0003413  19.1471 270.9596 15.01393830  3734
KUIPER-00592            
1 69277U 26118L   26201.91668981 -.00045530  00000+0 -31513-2 0  9991
2 69277  51.8846 252.0059 0002420 231.7567 286.2647 15.05251343  5376
KUIPER-00593            
1 69278U 26118M   26201.83621081  .00016976  00000+0  44460-3 0  9999
2 69278  51.8695 250.2037 0003057 308.6756  51.3957 15.38809326  9225
KUIPER-00594            
1 69279U 26118N   26201.38611153  .00004288  00000+0  12515-3 0  9998
2 69279  51.8693 252.4360 0001986  90.5970 269.5245 15.37506291  9093
KUIPER-00595            
1 69280U 26118P   26201.84367011  .00015469  00000+0  42313-3 0  9994
2 69280  51.8701 250.2506 0001505  16.2037 343.8998 15.37540236  9198
KUIPER-00596            
1 69281U 26118Q   26201.91668981 -.00049138  00000+0 -61328-2 0  9991
2 69281  51.9013 256.5305 0006679 349.9854 278.3217 14.82105602  5412
KUIPER-00597            
1 69282U 26118R   26201.41430743  .00011537  00000+0  31497-3 0  9995
2 69282  51.8634 252.5953 0006285 309.8183  50.2250 15.37864882  9094
KUIPER-00599            
1 69283U 26118S   26201.91668981 -.01091977  00000+0 -45668-1 0  9990
2 69283  51.8750 250.4242 0005785 304.5822 224.8036 15.26060896  4309
KUIPER-00600            
1 69284U 26118T   26201.36075485  .00012591  00000+0  34636-3 0  9998
2 69284  51.8621 252.9790 0008049 309.1896  50.8375 15.37528222  9087
KUIPER-00601            
1 69285U 26118U   26201.91668981 -.00014929  00000+0 -10673-2 0  9992
2 69285  51.8914 252.1629 0002678 344.4115  21.7148 15.03413799  4911
KUIPER-00602            
1 69286U 26118V   26201.91668981  .00000386  00000+0  22121-4 0  9996
2 69286  51.8700 249.8709 0002405 301.9904 117.9408 15.35203223  5551
KUIPER-00603            
1 69287U 26118W   26201.91668981 -.01129871  00000+0 -45025-1 0  9996
2 69287  51.8731 250.2970 0003148 302.0786 242.2709 15.27770622  5095
